STARLINK-32167          
1 60268U 24131P   25152.57848781  .00001041  00000+0  47245-4 0  9997
2 60268  53.1613 277.8648 0001070  89.1152 270.9971 15.30202703 48683
STARLINK-32144          
1 60269U 24131Q   25152.60698506  .00004689  00000+0  17045-3 0  9995
2 60269  53.1612 278.0262 0001410 101.8283 258.2876 15.30181297 48736
STARLINK-32211          
1 60270U 24131R   25152.63547445  .00012086  00000+0  41994-3 0  9995
2 60270  53.1597 278.2180 0001527  82.5846 277.5328 15.30167810 48685
STARLINK-32164          
1 60271U 24131S   25152.63968372  .00002417  00000+0  93673-4 0  9991
2 60271  53.1602 278.2322 0001095  80.4957 279.6168 15.30213029 48589
STARLINK-32128          
1 60272U 24131T   25152.59009355  .00001918  00000+0  76854-4 0  9991
2 60272  53.1590 277.9263 0001052 102.8328 257.2791 15.30198690 48681
STARLINK-32206          
1 60273U 24131U   25152.62913987  .00003972  00000+0  14620-3 0  9995
2 60273  53.1599 278.1748 0001272  82.4741 277.6404 15.30191798 48687
STARLINK-32155          
1 60274U 24131V   25152.62280519  .00003217  00000+0  12073-3 0  9996
2 60274  53.1610 278.1258 0001325  84.4626 275.6526 15.30193285 48586
STARLINK-32152          
1 60275U 24131W   25152.58693094  .00002139  00000+0  84346-4 0  9993
2 60275  53.1606 277.9020 0001281  86.3818 273.7330 15.30191506 48587
STARLINK-32154          
1 60276U 24131X   25152.58059952  .00003292  00000+0  12325-3 0  9991
2 60276  53.1617 277.8588 0001011 100.8517 259.2598 15.30188542 48689
STARLINK-32135          
1 60277U 24131Y   25152.59750348 -.00000851  00000+0 -16607-4 0  9998
2 60277  53.1613 277.9658 0001511  92.9856 267.1317 15.30176785 48680
STARLINK-32156          
1 60278U 24132A   25152.58800167  .00002085  00000+0  82482-4 0  9997
2 60278  53.1605 278.0382 0001123  96.5013 263.6115 15.30201222 49742
STARLINK-32010          
1 60279U 24132B   25152.62071464  .00003475  00000+0  12942-3 0  9990
2 60279  53.1603 278.2425 0001237  86.3833 273.7309 15.30194835 48527
STARLINK-32118          
1 60280U 24132C   25152.58167784  .00000681  00000+0  35105-4 0  9991
2 60280  53.1608 277.9969 0001033  84.1137 275.9982 15.30195765 48524
STARLINK-32038          
1 60281U 24132D   25152.58378352  .00002336  00000+0  90972-4 0  9999
2 60281  53.1604 278.0119 0001195 100.4129 259.7006 15.30194728 48527
STARLINK-32113          
1 60282U 24132E   25152.58483470  .00002295  00000+0  89587-4 0  9992
2 60282  53.1606 278.0173 0001021 100.2960 259.8156 15.30199981 48522
STARLINK-32037          
1 60283U 24132F   25152.60488329 -.00000996  00000+0 -21509-4 0  9992
2 60283  53.1603 278.1409 0001476 100.5087 259.6080 15.30205037 48524
STARLINK-32123          
1 60284U 24132G   25152.55972173  .00003295  00000+0  92285-4 0  9994
2 60284  53.1605 267.9385 0001306 102.1754 257.9397 15.39630246 48667
STARLINK-32122          
1 60285U 24132H   25152.59855676  .00001165  00000+0  51453-4 0  9993
2 60285  53.1603 278.1047 0001222  93.0055 267.1085 15.30195944 48528
STARLINK-31656          
1 60286U 24132J   25152.64064702  .00002950  00000+0  11166-3 0  9991
2 60286  53.1603 277.6605 0000863  90.3881 269.7218 15.30207916 48530
STARLINK-32114          
1 60287U 24132K   25152.62493538  .00000049  00000+0  13783-4 0  9998
2 60287  53.1615 278.2682 0001282  80.3163 279.7982 15.30213321 48529
STARLINK-31997          
1 60288U 24132L   25152.56584647  .00003271  00000+0  12254-3 0  9995
2 60288  53.1604 277.8959 0001266  73.8629 286.2511 15.30189788 48526
STARLINK-32000          
1 60289U 24132M   25152.60805210  .00003844  00000+0  14182-3 0  9991
2 60289  53.1610 278.1633 0001261  92.5831 267.5314 15.30203459 48520
STARLINK-32141          
1 60290U 24132N   25152.59222350  .00001871  00000+0  75291-4 0  9996
2 60290  53.1601 278.0637 0001096  96.9754 263.1371 15.30199754 48520
STARLINK-32142          
1 60291U 24132P   25152.63643378  .00002708  00000+0  10349-3 0  9991
2 60291  53.1606 277.6278 0000741  79.8888 280.2197 15.30210182 48532
STARLINK-32149          
1 60292U 24132Q   25152.61121973  .00001849  00000+0  74547-4 0  9998
2 60292  53.1606 278.1826 0001182  91.1320 268.9816 15.30195910 48527
STARLINK-32159          
1 60293U 24132R   25152.63431561  .00004418  00000+0  16119-3 0  9993
2 60293  53.1608 277.6128 0001286  82.3783 277.7364 15.30205665 48535
STARLINK-32150          
1 60294U 24132S   25152.61438202  .00001754  00000+0  71321-4 0  9998
2 60294  53.1603 278.2024 0001292  85.3640 274.7509 15.30201019 48521
STARLINK-32126          
1 60295U 24132T   25152.62704984  .00003008  00000+0  11368-3 0  9991
2 60295  53.1600 278.2782 0001247  74.9509 285.1629 15.30190479 48524
STARLINK-32143          
1 60296U 24132U   25152.61754436  .00005449  00000+0  19588-3 0  9991
2 60296  53.1606 278.2214 0001270  88.1904 271.9242 15.30215398 48525
STARLINK-32034          
1 60297U 24132V   25152.60383315  .00002399  00000+0  93127-4 0  9998
2 60297  53.1607 278.1354 0001333  96.3733 263.7420 15.30189519 48524
STARLINK-32124          
1 60298U 24132W   25152.61649527  .00002868  00000+0  10892-3 0  9998
2 60298  53.1607 278.2133 0001344  91.0799 269.0356 15.30195415 48526
STARLINK-32151          
1 60299U 24132X   25152.55360732  .00003538  00000+0  13153-3 0  9998
2 60299  53.1603 249.8388 0001097  77.8302 282.2821 15.30196510 48910
STARLINK-32134          
1 60300U 24132Y   25152.59433636  .00000910  00000+0  42868-4 0  9996
2 60300  53.1609 278.0763 0001266  96.3859 263.7286 15.30191578 48526
STARLINK-11147 [DTC]    
1 60301U 24133A   25152.54178911  .00002635  00000+0  26598-4 0  9993
2 60301  53.1590  92.4042 0001264  90.9442 269.1721 15.69716934 49571
STARLINK-11128 [DTC]    
1 60302U 24133B   25152.53688331  .00002431  00000+0  24910-4 0  9995
2 60302  53.1583  92.3722 0001037  80.9219 279.1916 15.69716656 49575
STARLINK-11227 [DTC]    
1 60303U 24133C   25152.53197776  .00001089  00000+0  13850-4 0  9993
2 60303  53.1599  92.3392 0001426 100.2767 259.8412 15.69714482 49652
STARLINK-11224 [DTC]    
1 60304U 24133D   25152.08139770 -.00001057  00000+0 -38648-5 0  9994
2 60304  53.1596  94.5035 0001167  91.7759 268.3393 15.69708313 49586
STARLINK-11115 [DTC]    
1 60305U 24133E   25152.26750260 -.00003121  00000+0 -20910-4 0  9994
2 60305  53.1591  93.5291 0001031  70.3140 289.7989 15.69712719 49530
STARLINK-11109 [DTC]    
1 60306U 24133F   25152.13525363  .00000803  00000+0  11487-4 0  9996
2 60306  53.1589  94.1230 0001079  84.4132 275.7008 15.69705060 49513
STARLINK-11223 [DTC]    
1 60307U 24133G   25152.12544417  .00000149  00000+0  60911-5 0  9997
2 60307  53.1585  94.0575 0001130  93.2603 266.8544 15.69707148 49515
STARLINK-11192 [DTC]    
1 60308U 24133H   25152.13034749  .00000202  00000+0  65262-5 0  9995
2 60308  53.1587  94.0912 0001124 104.7007 255.4135 15.69708231 49516
STARLINK-11213 [DTC]    
1 60309U 24133J   25152.24788064 -.00003097  00000+0 -20699-4 0  9995
2 60309  53.1599  93.3947 0001465  67.7272 292.3901 15.69716703 49536
STARLINK-11200 [DTC]    
1 60310U 24133K   25152.11563891 -.00000708  00000+0 -98484-6 0  9997
2 60310  53.1589  93.9888 0001163  66.8049 293.3092 15.69702066 49511
STARLINK-11208 [DTC]    
1 60311U 24133L   25152.58335648  .00226895  00000+0  93498-3 0  9998
2 60311  53.1456  89.6789 0005968  96.1830 271.0650 15.84763889  6027
STARLINK-11206 [DTC]    
1 60312U 24133M   25152.55160453  .00001401  00000+0  16426-4 0  9997
2 60312  53.1591  92.4631 0001238  95.0475 265.0684 15.69708522 49578
STARLINK-11205 [DTC]    
1 60313U 24133N   25152.22836217 -.00000328  00000+0  21571-5 0  9996
2 60313  53.1594  93.9952 0001337  94.4125 265.7046 15.69699172 49523
STARLINK-32191          
1 60314U 24133P   25152.32171634  .00001287  00000+0  55592-4 0  9996
2 60314  53.1593 163.8434 0001091  83.8609 276.2516 15.30194819 48569
STARLINK-32194          
1 60315U 24133Q   25152.20586406  .00000631  00000+0  33423-4 0  9992
2 60315  53.1597 164.5461 0001039  90.5666 269.5453 15.30186600 48544
STARLINK-32192          
1 60316U 24133R   25152.43018262 -.00000666  00000+0 -10387-4 0  9992
2 60316  53.1589 163.1031 0001065  80.2641 279.8480 15.30186266 48678
STARLINK-32189          
1 60317U 24133S   25152.33436986  .00002207  00000+0  86613-4 0  9995
2 60317  53.1597 163.9254 0001121  97.7479 262.3649 15.30200293 48657
STARLINK-32190          
1 60318U 24133T   25152.32488434  .00001156  00000+0  51148-4 0  9997
2 60318  53.1595 163.8627 0000997  78.4751 281.6361 15.30187808 48569
STARLINK-32182          
1 60319U 24133U   25152.20480888  .00000289  00000+0  21896-4 0  9993
2 60319  53.1598 164.5393 0001217  88.8343 271.2797 15.30185254 48548
STARLINK-32199          
1 60320U 24133V   25152.26273921 -.00000581  00000+0 -75102-5 0  9996
2 60320  53.1604 164.1906 0001375  96.3660 263.7497 15.30177741 48551
STARLINK-32198          
1 60321U 24133W   25152.33755040 -.00001732  00000+0 -46364-4 0  9998
2 60321  53.1593 163.9434 0001002  93.8709 266.2407 15.30200852 48655
STARLINK-31745          
1 60329U 24136A   25152.59810193  .00000648  00000+0  34006-4 0  9991
2 60329  53.1605 301.6368 0001316  80.6742 279.4408 15.30190521 47830
STARLINK-32153          
1 60330U 24136B   25152.59704716  .00000854  00000+0  40975-4 0  9997
2 60330  53.1612 301.6295 0001094  91.1520 268.9606 15.30187638 46627
STARLINK-32203          
1 60331U 24136C   25152.62656864  .00002177  00000+0  85642-4 0  9992
2 60331  53.1603 291.1601 0001903  89.1490 270.9728 15.30193752 46772
STARLINK-32171          
1 60332U 24136D   25152.61276152  .00002792  00000+0  10637-3 0  9994
2 60332  53.1608 301.0253 0001282  83.4101 276.7046 15.30193110 46638
STARLINK-32133          
1 60333U 24136E   25152.59071264  .00000856  00000+0  41029-4 0  9998
2 60333  53.1609 301.5883 0001153  94.5539 265.5594 15.30190590 46621
